{"type": "FeatureCollection", "features": [ {"type": "Feature", "properties": {"norad_id": 37483, "name": "COSMOS 2251 DEB", "group": "cosmos-2251-debris", "lat": 19.20805115478081, "lon": 124.04590784599765, "alt_km": 711.0624309570048, "timestamp": "2025-12-26T03:50:12.491933+00:00", "meta": {"OBJECT_NAME": "COSMOS 2251 DEB", "OBJECT_ID": "1993-036BLL", "EPOCH": "2025-12-24T01:50:58.185312", "MEAN_MOTION": 14.43572585, "ECCENTRICITY": 0.00936557, "INCLINATION": 73.9741, "RA_OF_ASC_NODE": 122.1834, "ARG_OF_PERICENTER": 326.1341, "MEAN_ANOMALY": 33.3856, "EPHEMERIS_TYPE": 0, "CLASSIFICATION_TYPE": "U", "NORAD_CAT_ID": 37483, "ELEMENT_SET_NO": 999, "REV_AT_EPOCH": 65443, "BSTAR": 0.00020999686, "MEAN_MOTION_DOT": 7.21e-06, "MEAN_MOTION_DDOT": 0}, "tle": {"line1": "1 37483U 93036BLL 25358.07706233  .00000721  00000+0  21000-3 0  9992", "line2": "2 37483  73.9741 122.1834 0093655 326.1341  33.3856 14.43572585654431"}}, "geometry": {"type": "Point", "coordinates": [124.04590784599765, 19.20805115478081]}}, {"type": "Feature", "properties": {"norad_id": 37484, "name": "COSMOS 2251 DEB", "group": "cosmos-2251-debris", "lat": -3.450836255932581, "lon": 4.2482183865372285, "alt_km": 731.8522020715736, "timestamp": "2025-12-26T03:50:12.491943+00:00", "meta": {"OBJECT_NAME": "COSMOS 2251 DEB", "OBJECT_ID": "1993-036BLM", "EPOCH": "2025-12-23T22:01:02.179776", "MEAN_MOTION": 14.41832075, "ECCENTRICITY": 0.0039304, "INCLINATION": 73.821, "RA_OF_ASC_NODE": 187.4539, "ARG_OF_PERICENTER": 220.8433, "MEAN_ANOMALY": 207.6544, "EPHEMERIS_TYPE": 0, "CLASSIFICATION_TYPE": "U", "NORAD_CAT_ID": 37484, "ELEMENT_SET_NO": 999, "REV_AT_EPOCH": 65540, "BSTAR": 0.00075175, "MEAN_MOTION_DOT": 2.453e-05, "MEAN_MOTION_DDOT": 0}, "tle": {"line1": "1 37484U 93036BLM 25357.91738634  .00002453  00000+0  75175-3 0  9991", "line2": "2 37484  73.8210 187.4539 0039304 220.8433 207.6544 14.41832075655400"}}, "geometry": {"type": "Point", "coordinates": [4.2482183865372285, -3.450836255932581]}}, {"type": "Feature", "properties": {"norad_id": 37486, "name": "COSMOS 2251 DEB", "group": "cosmos-2251-debris", "lat": 28.580961252712548, "lon": -98.8420140341078, "alt_km": 1007.9976117937213, "timestamp": "2025-12-26T03:50:12.491954+00:00", "meta": {"OBJECT_NAME": "COSMOS 2251 DEB", "OBJECT_ID": "1993-036BLP", "EPOCH": "2025-12-25T00:47:37.338720", "MEAN_MOTION": 14.13431538, "ECCENTRICITY": 0.02312079, "INCLINATION": 73.6929, "RA_OF_ASC_NODE": 92.3714, "ARG_OF_PERICENTER": 318.5034, "MEAN_ANOMALY": 220.7861, "EPHEMERIS_TYPE": 0, "CLASSIFICATION_TYPE": "U", "NORAD_CAT_ID": 37486, "ELEMENT_SET_NO": 999, "REV_AT_EPOCH": 63543, "BSTAR": 0.0021109743, "MEAN_MOTION_DOT": 5.095e-05, "MEAN_MOTION_DDOT": 0}, "tle": {"line1": "1 37486U 93036BLP 25359.03307105  .00005095  00000+0  21110-2 0  9997", "line2": "2 37486  73.6929  92.3714 0231207 318.5034 220.7861 14.13431538635431"}}, "geometry": {"type": "Point", "coordinates": [-98.8420140341078, 28.580961252712548]}}, {"type": "Feature", "properties": {"norad_id": 37487, "name": "COSMOS 2251 DEB", "group": "cosmos-2251-debris", "lat": -71.04701048541341, "lon": 108.1439409772605, "alt_km": 628.0027364405341, "timestamp": "2025-12-26T03:50:12.491965+00:00", "meta": {"OBJECT_NAME": "COSMOS 2251 DEB", "OBJECT_ID": "1993-036BLQ", "EPOCH": "2025-12-24T05:11:49.367040", "MEAN_MOTION": 14.81463002, "ECCENTRICITY": 0.00266054, "INCLINATION": 73.9017, "RA_OF_ASC_NODE": 169.2533, "ARG_OF_PERICENTER": 4.3349, "MEAN_ANOMALY": 355.8052, "EPHEMERIS_TYPE": 0, "CLASSIFICATION_TYPE": "U", "NORAD_CAT_ID": 37487, "ELEMENT_SET_NO": 999, "REV_AT_EPOCH": 81415, "BSTAR": 0.0032114426, "MEAN_MOTION_DOT": 0.00025372, "MEAN_MOTION_DDOT": 0}, "tle": {"line1": "1 37487U 93036BLQ 25358.21654360  .00025372  00000+0  32114-2 0  9991", "line2": "2 37487  73.9017 169.2533 0026605   4.3349 355.8052 14.81463002814155"}}, "geometry": {"type": "Point", "coordinates": [108.1439409772605, -71.04701048541341]}}, {"type": "Feature", "properties": {"norad_id": 37491, "name": "COSMOS 2251 DEB", "group": "cosmos-2251-debris", "lat": -29.885120716396585, "lon": -117.95815254280119, "alt_km": 965.1251072239056, "timestamp": "2025-12-26T03:50:12.491975+00:00", "meta": {"OBJECT_NAME": "COSMOS 2251 DEB", "OBJECT_ID": "1993-036BLU", "EPOCH": "2025-12-25T00:03:30.917952", "MEAN_MOTION": 13.7531974, "ECCENTRICITY": 0.03163036, "INCLINATION": 73.9051, "RA_OF_ASC_NODE": 253.5322, "ARG_OF_PERICENTER": 244.3669, "MEAN_ANOMALY": 112.4464, "EPHEMERIS_TYPE": 0, "CLASSIFICATION_TYPE": "U", "NORAD_CAT_ID": 37491, "ELEMENT_SET_NO": 999, "REV_AT_EPOCH": 55915, "BSTAR": 0.00078980531, "MEAN_MOTION_DOT": 1.066e-05, "MEAN_MOTION_DDOT": 0}, "tle": {"line1": "1 37491U 93036BLU 25359.00244118  .00001066  00000+0  78981-3 0  9997", "line2": "2 37491  73.9051 253.5322 0316303 244.3669 112.4464 13.75319740559150"}}, "geometry": {"type": "Point", "coordinates": [-117.95815254280119, -29.885120716396585]}}, {"type": "Feature", "properties": {"norad_id": 37498, "name": "COSMOS 2251 DEB", "group": "cosmos-2251-debris", "lat": -64.23214324009903, "lon": 14.866466931270905, "alt_km": 709.2873355102802, "timestamp": "2025-12-26T03:50:12.491985+00:00", "meta": {"OBJECT_NAME": "COSMOS 2251 DEB", "OBJECT_ID": "1993-036BMB", "EPOCH": "2025-12-17T05:47:45.632832", "MEAN_MOTION": 14.54797097, "ECCENTRICITY": 0.00121661, "INCLINATION": 74.035, "RA_OF_ASC_NODE": 175.365, "ARG_OF_PERICENTER": 238.5243, "MEAN_ANOMALY": 121.4732, "EPHEMERIS_TYPE": 0, "CLASSIFICATION_TYPE": "U", "NORAD_CAT_ID": 37498, "ELEMENT_SET_NO": 999, "REV_AT_EPOCH": 65420, "BSTAR": 0.00050498457, "MEAN_MOTION_DOT": 2.139e-05, "MEAN_MOTION_DDOT": 0}, "tle": {"line1": "1 37498U 93036BMB 25351.24150038  .00002139  00000+0  50498-3 0  9994", "line2": "2 37498  74.0350 175.3650 0012166 238.5243 121.4732 14.54797097654202"}}, "geometry": {"type": "Point", "coordinates": [14.866466931270905, -64.23214324009903]}}, {"type": "Feature", "properties": {"norad_id": 37499, "name": "COSMOS 2251 DEB", "group": "cosmos-2251-debris", "lat": -13.891063602195299, "lon": 121.68064622818162, "alt_km": 801.04454346074, "timestamp": "2025-12-26T03:50:12.491996+00:00", "meta": {"OBJECT_NAME": "COSMOS 2251 DEB", "OBJECT_ID": "1993-036BMC", "EPOCH": "2025-12-25T13:32:33.605376", "MEAN_MOTION": 14.34354595, "ECCENTRICITY": 0.0027475, "INCLINATION": 74.0386, "RA_OF_ASC_NODE": 298.7117, "ARG_OF_PERICENTER": 11.2548, "MEAN_ANOMALY": 348.9212, "EPHEMERIS_TYPE": 0, "CLASSIFICATION_TYPE": "U", "NORAD_CAT_ID": 37499, "ELEMENT_SET_NO": 999, "REV_AT_EPOCH": 85333, "BSTAR": 0.00018715, "MEAN_MOTION_DOT": 5.02e-06, "MEAN_MOTION_DDOT": 0}, "tle": {"line1": "1 37499U 93036BMC 25359.56427784  .00000502  00000+0  18715-3 0  9991", "line2": "2 37499  74.0386 298.7117 0027475  11.2548 348.9212 14.34354595853337"}}, "geometry": {"type": "Point", "coordinates": [121.68064622818162, -13.891063602195299]}}, {"type": "Feature", "properties": {"norad_id": 37528, "name": "COSMOS 2251 DEB", "group": "cosmos-2251-debris", "lat": 48.935119467204025, "lon": 116.0954534124278, "alt_km": 733.7084548289304, "timestamp": "2025-12-26T03:50:12.492006+00:00", "meta": {"OBJECT_NAME": "COSMOS 2251 DEB", "OBJECT_ID": "1993-036BNH", "EPOCH": "2025-12-25T12:42:07.093728", "MEAN_MOTION": 14.50565382, "ECCENTRICITY": 0.0021139, "INCLINATION": 74.0377, "RA_OF_ASC_NODE": 98.1019, "ARG_OF_PERICENTER": 245.0707, "MEAN_ANOMALY": 114.8257, "EPHEMERIS_TYPE": 0, "CLASSIFICATION_TYPE": "U", "NORAD_CAT_ID": 37528, "ELEMENT_SET_NO": 999, "REV_AT_EPOCH": 86116, "BSTAR": 0.00049222, "MEAN_MOTION_DOT": 1.907e-05, "MEAN_MOTION_DDOT": 0}, "tle": {"line1": "1 37528U 93036BNH 25359.52924877  .00001907  00000+0  49222-3 0  9992", "line2": "2 37528  74.0377  98.1019 0021139 245.0707 114.8257 14.50565382861163"}}, "geometry": {"type": "Point", "coordinates": [116.0954534124278, 48.935119467204025]}}, {"type": "Feature", "properties": {"norad_id": 37530, "name": "COSMOS 2251 DEB", "group": "cosmos-2251-debris", "lat": -73.64236166869424, "lon": -153.7084542875883, "alt_km": 787.1570899013122, "timestamp": "2025-12-26T03:50:12.492017+00:00", "meta": {"OBJECT_NAME": "COSMOS 2251 DEB", "OBJECT_ID": "1993-036BNK", "EPOCH": "2025-12-21T14:21:51.053184", "MEAN_MOTION": 14.34514444, "ECCENTRICITY": 0.00262828, "INCLINATION": 74.0362, "RA_OF_ASC_NODE": 317.4173, "ARG_OF_PERICENTER": 16.8555, "MEAN_ANOMALY": 103.2676, "EPHEMERIS_TYPE": 0, "CLASSIFICATION_TYPE": "U", "NORAD_CAT_ID": 37530, "ELEMENT_SET_NO": 999, "REV_AT_EPOCH": 85359, "BSTAR": 0.00021615779, "MEAN_MOTION_DOT": 5.86e-06, "MEAN_MOTION_DDOT": 0}, "tle": {"line1": "1 37530U 93036BNK 25355.59850756  .00000586  00000+0  21616-3 0  9991", "line2": "2 37530  74.0362 317.4173 0026282  16.8555 103.2676 14.34514444853597"}}, "geometry": {"type": "Point", "coordinates": [-153.7084542875883, -73.64236166869424]}}, {"type": "Feature", "properties": {"norad_id": 37532, "name": "COSMOS 2251 DEB", "group": "cosmos-2251-debris", "lat": 63.45879976178256, "lon": -134.21739379733833, "alt_km": 752.612887352564, "timestamp": "2025-12-26T03:50:12.492028+00:00", "meta": {"OBJECT_NAME": "COSMOS 2251 DEB", "OBJECT_ID": "1993-036BNM", "EPOCH": "2025-12-24T19:59:09.008160", "MEAN_MOTION": 14.42423835, "ECCENTRICITY": 0.00162225, "INCLINATION": 74.0486, "RA_OF_ASC_NODE": 193.3082, "ARG_OF_PERICENTER": 292.8067, "MEAN_ANOMALY": 87.0164, "EPHEMERIS_TYPE": 0, "CLASSIFICATION_TYPE": "U", "NORAD_CAT_ID": 37532, "ELEMENT_SET_NO": 999, "REV_AT_EPOCH": 85090, "BSTAR": 0.00019035251, "MEAN_MOTION_DOT": 6.04e-06, "MEAN_MOTION_DDOT": 0}, "tle": {"line1": "1 37532U 93036BNM 25358.83274315  .00000604  00000+0  19035-3 0  9997", "line2": "2 37532  74.0486 193.3082 0016222 292.8067  87.0164 14.42423835850908"}}, "geometry": {"type": "Point", "coordinates": [-134.21739379733833, 63.45879976178256]}}]}